     3.00           N: GNSS NAV DATA    E: Galileo          RINEX VERSION / TYPE
PREC2NAV                                20121215 063323 UTC PGM / RUN BY / DATE 
SOURCE: data/tum%W%D.sp3                                    COMMENT             
                                                            END OF HEADER       
E12 2012 11 21 14  0  0  .558630078760E-03  .850205128205E-10  .000000000000E+00
      .800000000000E+01 -.958701953620E+02  .351168064059E-08 -.404220073247E+00
     -.440694920825E-05  .814122951181E-04  .715861636877E-05  .544060633820E+04
      .309600000000E+06  .391371651021E-07  .106916408889E+01 -.135960410008E-07
      .956311283181E+00  .184885913472E+03 -.301564753182E+01 -.579778343617E-08
     -.214132039612E-09  .000000000000E+00  .171500000000E+04  .000000000000E+00
      .240000000000E+01  .000000000000E+00  .000000000000E+00  .000000000000E+00
      .313200000000E+06  .000000000000E+00
E11 2012 11 21 16  0  0  .666547212640E-03  .386625435897E-09  .000000000000E+00
      .900000000000E+01 -.951024257291E+02  .354760781352E-08  .140388372175E+01
     -.434495949350E-05  .123376029104E-03  .725930673872E-05  .544060846550E+04
      .316800000000E+06  .347621351380E-07  .106914826613E+01 -.860469904498E-08
      .956297865981E+00  .183135175390E+03  .164800280285E+01 -.581549150240E-08
     -.198905159452E-09  .000000000000E+00  .171500000000E+04  .000000000000E+00
      .240000000000E+01  .000000000000E+00  .000000000000E+00  .000000000000E+00
      .320400000000E+06  .000000000000E+00
E12 2012 11 21 16  0  0  .559242455240E-03  .850861384615E-10  .000000000000E+00
      .900000000000E+01 -.958965436902E+02  .355203813471E-08  .485305004995E+00
     -.445126264443E-05  .794845716403E-04  .786112605494E-05  .544060237654E+04
      .316800000000E+06  .291788795366E-07  .106912228570E+01 -.591888693280E-08
      .956309662816E+00  .170474386962E+03 -.301254040284E+01 -.580974944095E-08
     -.216318680705E-09  .000000000000E+00  .171500000000E+04  .000000000000E+00
      .240000000000E+01  .000000000000E+00  .000000000000E+00  .000000000000E+00
      .320400000000E+06  .000000000000E+00
E11 2012 11 21 18  0  0  .669330928360E-03  .386658102564E-09  .000000000000E+00
      .100000000000E+02 -.918910399576E+02  .353415046197E-08  .230187606077E+01
     -.429446902036E-05  .123019891083E-03  .767429102155E-05  .544060736469E+04
      .324000000000E+06  .367170672169E-07  .106910638402E+01 -.701810094952E-08
      .956296422771E+00  .175238458658E+03 -.464054405282E+01 -.581705216586E-08
     -.198274708078E-09  .000000000000E+00  .171500000000E+04  .000000000000E+00
      .240000000000E+01  .000000000000E+00  .000000000000E+00  .000000000000E+00
      .327600000000E+06  .000000000000E+00
E12 2012 11 21 18  0  0  .559855151280E-03  .851155538461E-10  .000000000000E+00
      .100000000000E+02 -.798506901621E+02  .344878841315E-08  .135525474627E+01
     -.387758508777E-05  .810930034312E-04  .807626846120E-05  .544060738203E+04
      .324000000000E+06  .634641642956E-07  .106908020473E+01  .183642746151E-07
      .956308123041E+00  .163616934098E+03 -.298985901433E+01 -.582269490104E-08
     -.184717672625E-09  .000000000000E+00  .171500000000E+04  .000000000000E+00
      .240000000000E+01  .000000000000E+00  .000000000000E+00  .000000000000E+00
      .327600000000E+06  .000000000000E+00
E11 2012 11 21 20  0  0  .672115489720E-03  .386959928205E-09  .000000000000E+00
      .110000000000E+02 -.789257439469E+02  .342495646279E-08 -.309785598875E+01
     -.385233124499E-05  .121523350706E-03  .776803934560E-05  .544061111496E+04
      .331200000000E+06  .559733890933E-07  .106906429912E+01  .362400804327E-07
      .956295046382E+00  .168842830067E+03 -.463136886019E+01 -.582158493862E-08
     -.167087829422E-09  .000000000000E+00  .171500000000E+04  .000000000000E+00
      .240000000000E+01  .000000000000E+00  .000000000000E+00  .000000000000E+00
      .334800000000E+06  .000000000000E+00
E12 2012 11 21 20  0  0  .560469048440E-03  .856082256410E-10  .000000000000E+00
      .110000000000E+02 -.691504837491E+02  .343019408215E-08  .227340579443E+01
     -.325408569851E-05  .816312880310E-04  .746039549164E-05  .544060293701E+04
      .331200000000E+06 -.318151979846E-07  .106903785654E+01  .487257540370E-07
      .956307207206E+00  .174314899500E+03 -.301537907835E+01 -.578110388704E-08
     -.108923037350E-09  .000000000000E+00  .171500000000E+04  .000000000000E+00
      .240000000000E+01  .000000000000E+00  .000000000000E+00  .000000000000E+00
      .334800000000E+06  .000000000000E+00
E11 2012 11 21 22  0  0  .674899289800E-03  .386700087179E-09  .000000000000E+00
      .120000000000E+02 -.664358096119E+02  .338433675832E-08 -.221208358674E+01
     -.306407302487E-05  .123480898770E-03  .727574492365E-05  .544060670592E+04
      .338400000000E+06 -.417913710052E-07  .106902203130E+01  .304809731086E-07
      .956294339235E+00  .177292513350E+03  .165867315874E+01 -.576869974083E-08
     -.957226791016E-10  .000000000000E+00  .171500000000E+04  .000000000000E+00
      .240000000000E+01  .000000000000E+00  .000000000000E+00  .000000000000E+00
      .342000000000E+06  .000000000000E+00
E12 2012 11 21 22  0  0  .561080732920E-03  .850670384615E-10  .000000000000E+00
      .120000000000E+02 -.731814865597E+02  .331849631983E-08 -.312363008615E+01
     -.333805655751E-05  .797630419361E-04  .695602706790E-05  .544060691098E+04
      .338400000000E+06 -.239685482739E-07  .106899627939E+01 -.475804011878E-10
      .956306701143E+00  .187893350130E+03 -.300889775575E+01 -.574192696683E-08
     -.925337915432E-10  .000000000000E+00  .171500000000E+04  .000000000000E+00
      .240000000000E+01  .000000000000E+00  .000000000000E+00  .000000000000E+00
      .342000000000E+06  .000000000000E+00
E11 2012 11 22  0  0  0  .677683456520E-03  .386711943590E-09  .000000000000E+00
      .130000000000E+02 -.675232684615E+02  .327627298122E-08 -.130348376857E+01
     -.308814182221E-05  .123244969522E-03  .682227124752E-05  .544061081890E+04
      .345600000000E+06 -.358112986775E-07  .106898053002E+01 -.759328723936E-08
      .956293751588E+00  .191231178893E+03  .164270165599E+01 -.575651145485E-08
     -.858148475642E-10  .000000000000E+00  .171500000000E+04  .000000000000E+00
      .240000000000E+01  .000000000000E+00  .000000000000E+00  .000000000000E+00
      .349200000000E+06  .000000000000E+00
E12 2012 11 22  0  0  0  .561693019320E-03  .850222820513E-10  .000000000000E+00
      .130000000000E+02 -.738618423904E+02  .331366470561E-08 -.223446020365E+01
     -.342640530732E-05  .793643562266E-04  .670015817041E-05  .544060739244E+04
      .345600000000E+06  .312889233825E-07  .106895464010E+01 -.135447378279E-07
      .956305930734E+00  .194195399596E+03 -.300543930581E+01 -.577358089633E-08
     -.580352974588E-10  .000000000000E+00  .171500000000E+04  .000000000000E+00
      .240000000000E+01  .000000000000E+00  .000000000000E+00  .000000000000E+00
      .349200000000E+06  .000000000000E+00
